#dP2023  8 31  0  0  0.00000000      96 __u+U ITR00 EXT  IAC
## 2277 345600.00000000   900.00000000 60187 0.0000000000000
+  119   C06C07C08C09C10C11C12C13C14C16C19C20C21C22C23C24C25
+        C26C27C28C29C30C32C33C34C35C36C37C38C39C40C41C42C43
+        C44C45C46E02E03E04E05E07E08E09E10E11E12E13E14E15E18
+        E19E21E24E25E26E27E30E31E33E34E36G01G02G03G04G05G06
+        G07G08G09G10G11G12G13G14G15G16G17G18G19G20G21G22G23
+        G24G25G26G27G28G29G30G31G32J02J03J04R01R02R03R04R05
+        R07R08R09R11R12R13R14R15R16R17R18R19R20R21R22R24R25
++        10 11 11 11 10 13 10  9  9 10  7  8  9  9  9  8  8
++         8  8  8  8  9  9  7  9  8  8  9 10 11 10  9  8  8
++         8  7  8  7  7  7  7  8  8  7  7  8  7  8  8  7  7
++         8  8  7  7  8  8  7  8  8  7  9  8  7  7  7  7  8
++         7  7  7  7  7  8  8  8  8  6  7  7  7  7  7  8  7
++         7  8  8  7  9  8  8  8  8  9 10  8  9  8  8  8  7
++        10  9  9  7  8  8  7  9  8  7  8  8 10  7 10  8  8
%c M  cc GPS ccc cccc cccc cccc cccc ccccc ccccc ccccc ccccc
%c cc cc ccc ccc cccc cccc cccc cccc ccccc ccccc ccccc ccccc
%f  0.0000000  0.000000000  0.00000000000  0.000000000000000
%f  0.0000000  0.000000000  0.00000000000  0.000000000000000
%i    0    0    0    0      0      0      0      0         0
%i    0    0    0    0      0      0      0      0         0
/* IAC                                ULTRA-RAPID PREDICTION
/* S/V CLOCKS ARE ALIGNED TO GNSS TIME                      
/* G:C1WC2W R:C1PC2P E:C1XC5X C:C2IC6I J:C1CC2S             
/* PCV:IGS20_2274 OL/AL:FES2004  NONE     YN ORB:CoN CLK:CoN
*  2023 08 31  8 15  0.00000000
PC06  -2396.856500  36570.365943  21127.132123    941.549771
PC07 -12774.901292  25947.166203 -30632.905149    -13.932276
PC08 -18550.545767  35766.241308  12016.851448    366.772865
PC09   2452.453620  40047.672212  14293.583007    225.319816
PC10  -4751.784985  27002.795049 -31734.614442   -162.870288
PC11 -18196.803649  -2199.091511 -20984.580891    807.500661
PC12 -19066.166769 -18994.132064  -7378.686084    917.644996
PC13 -12393.648619  36098.046534  17723.595375    343.756401
PC14 -27594.211825   4040.833724   1651.642594    322.139395
PC16  -4911.919136  34398.141716  24345.851289    -58.981235
PC19  23869.261520  -9748.487387 -10634.997243   -970.864575
PC20  27213.151522   1261.806030   5983.248185    320.403938
PC21 -14351.716172 -12485.018243 -20420.047102   -959.758960
PC22   6567.882925 -15762.276435 -22077.590121   -327.876933
PC23  -9252.749356  26141.742825  -3091.690156   -886.868476
PC24 -16328.031831  -3125.198528  22406.054425    342.040901
PC25 -17453.972514  17444.368230  13005.467237    201.039147
PC26  -6161.189804 -19891.344174  18581.079519   -170.935282
PC27  15616.067299  23113.769312   -884.634055    192.328486
PC28   2709.041307  22845.356400 -15785.021108    144.084883
PC29  13522.607584  -8612.685659  22835.615099    168.177878
PC30  21176.997002  10639.137435  14737.670936     -4.222986
PC32  14298.279063  12444.090404  20482.604744   -529.960342
PC33 -23894.290486   9860.230131  10532.314506   -952.020144
PC34 -21065.830762  -9300.258158 -15765.807630    249.078373
PC35  -3340.228740 -22686.249994  15873.013861    556.494311
PC36  18024.197172 -16379.733082 -13602.612107   -249.313043
PC37   5073.011654  20609.913737 -18088.009039   -817.459118
PC38 -22324.512531  35477.119081   3564.525695    101.710792
PC39  -7438.055906  30488.805421  28317.485657     -4.563921
PC40 -18397.255869  19087.680222 -32827.582384    -34.802139
PC41  -7353.943327  15785.721715  21852.044026   -882.634790
PC42 -26851.658329  -2143.992421  -7304.204397   -561.139482
PC43 -14219.962916   7828.411830 -22707.878436     37.665808
PC44 -16382.129715 -22552.033853   1025.117767    216.838299
PC45   8934.591496 -26198.897561   3644.205335    -20.217976
PC46  16729.075574   1594.984615 -22280.279641    -80.648991
PE02   7204.733865 -20889.748958  19704.094659     59.138758
PE03  -4833.351748 -19457.895942 -21786.625316    -51.271650
PE04  22502.600630  17480.379225   8015.705658   -201.503351
PE05  15761.018439 -10098.727745 -22930.497553     13.998385
PE07 -27200.228767  -5451.856100  10341.290578    -71.353565
PE08 -22267.273363 -17584.876672  -8457.783577   -138.818255
PE09  27194.672965   5579.230005 -10254.006834   -139.619632
PE10  14966.062208  13076.442144  21920.039940   -560.183660
PE11  16121.131461   1011.375392  24790.119674   2837.369372
PE12  11675.340941  22056.770988  15914.633001   -679.118229
PE13 -16069.165755  -1851.260731 -24791.198620    -19.541518
PE14 -16608.280542 -20863.082584  11162.273134    326.792758
PE15 -11484.949685 -22358.365787 -15634.821850    -49.440066
PE18   3608.419454  20642.691005 -18603.086889    476.144814
PE19   2042.617113  18723.070479  22838.645008  -1733.104282
PE21 -22526.702433  18631.198956  -4646.148534   -549.845865
PE24  25479.350620  -4807.520712 -14302.394401   -295.572653
PE25  22712.098698 -18487.873296   4324.244228     -1.091386
PE26 -11002.773513  20063.925465 -18770.700571    208.611026
PE27 -25595.340850   5408.270053  13851.821992   -138.117984
PE30 -13151.438501 -11248.892855  24009.857241   -461.763103
PE31  13561.262698  10831.687139 -23964.496373     -3.953972
PE33   -160.873357  29422.327760  -3161.770818     -0.998655
PE34   -311.743962 -29500.478807   2515.408467    -64.483229
PE36  11184.773754 -19449.481494  19306.923826   -109.104249
PG01  13350.769437  -9062.864773  20675.681479    166.781156
PG02  15216.182505  -1593.031353  22214.735684   -559.426628
PG03  23188.944926 -12496.981227   2735.177437   -160.267719
PG04  18975.524446  -3788.195320 -18238.366656    141.920596
PG05 -21104.241917   1041.830599 -16338.806742   -140.892449
PG06  -5701.136003 -24768.548082  -7486.850466    558.247094
PG07   6322.997313 -23248.777069 -10149.550562     80.509919
PG08  24499.402887   4262.850754   9801.826692   -139.852695
PG09  10743.259726 -11549.937610 -21454.074990    -72.455522
PG10  -1320.545505  17064.906783  20397.483796    -51.469645
PG11 -12402.870369 -14974.434014 -18103.063189   -346.048239
PG12 -24350.214035   8351.582132   6095.885744   -419.270702
PG13 -22815.797480 -13290.391815   3605.893671    566.781158
PG14   5118.764383 -18417.225039  18393.079361    170.586203
PG15 -24580.852444   -922.468817   9847.982326     72.942563
PG16  18585.376057   5073.813137 -18781.649753   -460.918392
PG17  -5797.613378 -18364.375850  18675.677014    723.349496
PG18  -5243.879025  24488.934098  -8571.159301   -401.313146
PG19 -13750.203024 -19218.565419  12250.240412    365.030825
PG20 -13874.603115  -7879.040807 -21170.735182    414.360295
PG21  15689.460032   2043.425691  21942.798523    149.805141
PG22  -1994.971057 -15918.111879  21668.827753    131.092832
PG23 -13533.181035  19181.555971  12260.374843     62.007408
PG24 -15106.271396   4276.730251  21022.796182   -305.834591
PG25 -18735.519893  17630.639984  -6325.575623    465.194981
PG26   9901.337194  12426.306408 -21408.664512    230.688424
PG27  23231.601692  13266.732477  -1598.166673    -31.469249
PG28   5741.295294  25361.836050  -5437.527163     -3.786256
PG29 -11505.662529  10169.244132 -21730.454551   -608.681236
PG30   -151.439380 -26389.742545  -1062.173508   -491.935169
PG31  10826.432888  19152.600934 -14754.164694   -222.681440
PG32  11095.265069  18285.669199  16053.860832   -550.057070
PJ02 -36409.231869  20082.882249  -2455.762231     -3.302753
PJ03 -20073.214258  25131.143045 -22643.098101     -1.881360
PJ04 -27147.585401  29770.792492  18268.265743     70.508390
PR01  -5137.528063  10551.072850  22644.743373     64.611179
PR02  14213.940487  10050.018813  18712.886216    -22.485379
PR03  24955.066359   3829.930611   3902.040885     84.325004
PR04  21710.021124  -4048.822023 -12756.556593    200.876181
PR05   6824.488067  -9876.484541 -22504.021593    118.219626
PR07 -25073.307789  -3418.433758  -2947.542212     63.601217
PR08 -21511.644345   4402.331875  13005.233266    -72.365815
PR09  -2576.344643 -14830.856791  20591.527969    139.649999
PR11 -16828.543888  15194.384011  11720.108927   -148.361357
PR12 -10680.280544  21971.149969  -7287.936377     30.762438
PR13    600.709120  16231.743132 -19675.710880    -38.716596
PR14  13250.124893   -782.784145 -21760.510960     25.171245
PR15  16929.315509 -15947.507901 -10442.199341     86.582186
PR16  10699.715471 -22027.222587   7090.092388     18.232407
PR17  14291.941893  11471.291383  17725.387326     13.435202
PR18   9215.403852  -5004.843903  23265.712803     99.516494
PR19    927.015887 -18206.373564  17847.228721   -245.476058
PR20 -10336.503540 -23272.113418  -1186.345081    -99.228957
PR21 -14066.293168 -10723.679332 -18396.850417    -34.453754
PR22  -9265.576809   5912.197533 -22993.785980    122.465365
PR24  11469.584392  22697.175902   1826.935990    -22.539255
PR25 -14006.068458 -12110.654536 -17554.808309     40.020477
EOF
